[{"OBJECT_NAME":"FLOCK 4BE-20","OBJECT_ID":"2024-149X","EPOCH":"2026-02-01T18:10:31.445760","MEAN_MOTION":15.34100826,"ECCENTRICITY":0.00041125,"INCLINATION":97.3818,"RA_OF_ASC_NODE":114.5465,"ARG_OF_PERICENTER":46.8649,"MEAN_ANOMALY":313.2937,"EPHEMERIS_TYPE":0,"CLASSIFICATION_TYPE":"U","NORAD_CAT_ID":60489,"ELEMENT_SET_NO":999,"REV_AT_EPOCH":8142,"BSTAR":0.00036745979,"MEAN_MOTION_DOT":0.00012055,"MEAN_MOTION_DDOT":0},{"OBJECT_NAME":"FLOCK 4BE-23","OBJECT_ID":"2024-149Y","EPOCH":"2026-02-01T18:44:55.844160","MEAN_MOTION":15.33774773,"ECCENTRICITY":0.00041119,"INCLINATION":97.3897,"RA_OF_ASC_NODE":114.8721,"ARG_OF_PERICENTER":53.0879,"MEAN_ANOMALY":307.074,"EPHEMERIS_TYPE":0,"CLASSIFICATION_TYPE":"U","NORAD_CAT_ID":60490,"ELEMENT_SET_NO":999,"REV_AT_EPOCH":8141,"BSTAR":0.00039564443,"MEAN_MOTION_DOT":0.00012854,"MEAN_MOTION_DDOT":0},{"OBJECT_NAME":"FLOCK 4BE-15","OBJECT_ID":"2024-149Z","EPOCH":"2026-02-01T19:26:55.382208","MEAN_MOTION":15.37774766,"ECCENTRICITY":0.00043511,"INCLINATION":97.3833,"RA_OF_ASC_NODE":115.7515,"ARG_OF_PERICENTER":71.0746,"MEAN_ANOMALY":289.0971,"EPHEMERIS_TYPE":0,"CLASSIFICATION_TYPE":"U","NORAD_CAT_ID":60491,"ELEMENT_SET_NO":999,"REV_AT_EPOCH":8150,"BSTAR":0.00043800967,"MEAN_MOTION_DOT":0.00016191,"MEAN_MOTION_DDOT":0},{"OBJECT_NAME":"FLOCK 4BE-17","OBJECT_ID":"2024-149AA","EPOCH":"2026-02-01T20:43:16.776768","MEAN_MOTION":15.35316961,"ECCENTRICITY":0.00035142,"INCLINATION":97.3889,"RA_OF_ASC_NODE":115.5479,"ARG_OF_PERICENTER":44.4481,"MEAN_ANOMALY":315.7044,"EPHEMERIS_TYPE":0,"CLASSIFICATION_TYPE":"U","NORAD_CAT_ID":60492,"ELEMENT_SET_NO":999,"REV_AT_EPOCH":8146,"BSTAR":0.00039907487,"MEAN_MOTION_DOT":0.00013618,"MEAN_MOTION_DDOT":0},{"OBJECT_NAME":"FLOCK 4BE-22","OBJECT_ID":"2024-149AC","EPOCH":"2026-02-01T18:09:02.708640","MEAN_MOTION":15.3622251,"ECCENTRICITY":0.00047648,"INCLINATION":97.3845,"RA_OF_ASC_NODE":115.4597,"ARG_OF_PERICENTER":51.5401,"MEAN_ANOMALY":308.627,"EPHEMERIS_TYPE":0,"CLASSIFICATION_TYPE":"U","NORAD_CAT_ID":60494,"ELEMENT_SET_NO":999,"REV_AT_EPOCH":8147,"BSTAR":0.00043872049,"MEAN_MOTION_DOT":0.00015425,"MEAN_MOTION_DDOT":0},{"OBJECT_NAME":"FLOCK 4BE-34","OBJECT_ID":"2024-149AD","EPOCH":"2026-02-01T20:26:24.293184","MEAN_MOTION":15.36647881,"ECCENTRICITY":0.00044361,"INCLINATION":97.3889,"RA_OF_ASC_NODE":116.2641,"ARG_OF_PERICENTER":61.3198,"MEAN_ANOMALY":298.8492,"EPHEMERIS_TYPE":0,"CLASSIFICATION_TYPE":"U","NORAD_CAT_ID":60495,"ELEMENT_SET_NO":999,"REV_AT_EPOCH":8151,"BSTAR":0.00041859441,"MEAN_MOTION_DOT":0.00014914,"MEAN_MOTION_DDOT":0},{"OBJECT_NAME":"FLOCK 4BE-32","OBJECT_ID":"2024-149AF","EPOCH":"2026-02-01T17:56:56.226336","MEAN_MOTION":15.36876304,"ECCENTRICITY":0.00046852,"INCLINATION":97.3833,"RA_OF_ASC_NODE":115.6739,"ARG_OF_PERICENTER":52.4499,"MEAN_ANOMALY":307.717,"EPHEMERIS_TYPE":0,"CLASSIFICATION_TYPE":"U","NORAD_CAT_ID":60497,"ELEMENT_SET_NO":999,"REV_AT_EPOCH":8149,"BSTAR":0.00044816198,"MEAN_MOTION_DOT":0.00016095,"MEAN_MOTION_DDOT":0},{"OBJECT_NAME":"FLOCK 4BE-30","OBJECT_ID":"2024-149AH","EPOCH":"2026-02-01T18:08:48.465600","MEAN_MOTION":15.36807007,"ECCENTRICITY":0.00040551,"INCLINATION":97.3914,"RA_OF_ASC_NODE":116.2119,"ARG_OF_PERICENTER":53.399,"MEAN_ANOMALY":306.7627,"EPHEMERIS_TYPE":0,"CLASSIFICATION_TYPE":"U","NORAD_CAT_ID":60499,"ELEMENT_SET_NO":999,"REV_AT_EPOCH":8087,"BSTAR":0.0004206322,"MEAN_MOTION_DOT":0.00015064,"MEAN_MOTION_DDOT":0},{"OBJECT_NAME":"FLOCK 4BE-11","OBJECT_ID":"2024-149AK","EPOCH":"2026-02-01T17:59:16.920096","MEAN_MOTION":15.37604959,"ECCENTRICITY":0.00047273,"INCLINATION":97.3816,"RA_OF_ASC_NODE":115.7726,"ARG_OF_PERICENTER":48.7628,"MEAN_ANOMALY":311.4023,"EPHEMERIS_TYPE":0,"CLASSIFICATION_TYPE":"U","NORAD_CAT_ID":60501,"ELEMENT_SET_NO":999,"REV_AT_EPOCH":8150,"BSTAR":0.00049700929,"MEAN_MOTION_DOT":0.00018288,"MEAN_MOTION_DDOT":0},{"OBJECT_NAME":"FLOCK 4BE-33","OBJECT_ID":"2024-149AL","EPOCH":"2026-02-01T18:20:53.559456","MEAN_MOTION":15.51779303,"ECCENTRICITY":0.00022396,"INCLINATION":97.3785,"RA_OF_ASC_NODE":115.9845,"ARG_OF_PERICENTER":11.1552,"MEAN_ANOMALY":348.975,"EPHEMERIS_TYPE":0,"CLASSIFICATION_TYPE":"U","NORAD_CAT_ID":60502,"ELEMENT_SET_NO":999,"REV_AT_EPOCH":8151,"BSTAR":0.0021284381,"MEAN_MOTION_DOT":0.00128837,"MEAN_MOTION_DDOT":0},{"OBJECT_NAME":"FLOCK 4BE-10","OBJECT_ID":"2024-149AM","EPOCH":"2026-02-01T19:16:26.876640","MEAN_MOTION":15.58735079,"ECCENTRICITY":0.00030154,"INCLINATION":97.3837,"RA_OF_ASC_NODE":117.2322,"ARG_OF_PERICENTER":323.1461,"MEAN_ANOMALY":36.9588,"EPHEMERIS_TYPE":0,"CLASSIFICATION_TYPE":"U","NORAD_CAT_ID":60503,"ELEMENT_SET_NO":999,"REV_AT_EPOCH":8157,"BSTAR":0.0024662906,"MEAN_MOTION_DOT":0.00194112,"MEAN_MOTION_DDOT":0},{"OBJECT_NAME":"FLOCK 4BE-24","OBJECT_ID":"2024-149AP","EPOCH":"2026-02-01T15:55:59.225088","MEAN_MOTION":15.37570951,"ECCENTRICITY":0.00047893,"INCLINATION":97.3829,"RA_OF_ASC_NODE":115.9309,"ARG_OF_PERICENTER":61.7704,"MEAN_ANOMALY":298.4024,"EPHEMERIS_TYPE":0,"CLASSIFICATION_TYPE":"U","NORAD_CAT_ID":60505,"ELEMENT_SET_NO":999,"REV_AT_EPOCH":8150,"BSTAR":0.00046333948,"MEAN_MOTION_DOT":0.00017022,"MEAN_MOTION_DDOT":0},{"OBJECT_NAME":"TANAGER-4001","OBJECT_ID":"2024-149AR","EPOCH":"2026-02-01T18:40:45.743808","MEAN_MOTION":15.4348322,"ECCENTRICITY":0.00054013,"INCLINATION":97.3789,"RA_OF_ASC_NODE":125.6409,"ARG_OF_PERICENTER":252.8942,"MEAN_ANOMALY":107.1715,"EPHEMERIS_TYPE":0,"CLASSIFICATION_TYPE":"U","NORAD_CAT_ID":60507,"ELEMENT_SET_NO":999,"REV_AT_EPOCH":8214,"BSTAR":0.00071463048,"MEAN_MOTION_DOT":0.00032026,"MEAN_MOTION_DDOT":0},{"OBJECT_NAME":"FLOCK 4BE-29","OBJECT_ID":"2024-149AT","EPOCH":"2026-02-01T18:48:21.255840","MEAN_MOTION":15.38663732,"ECCENTRICITY":0.00038908,"INCLINATION":97.3913,"RA_OF_ASC_NODE":117.0913,"ARG_OF_PERICENTER":67.1686,"MEAN_ANOMALY":292.997,"EPHEMERIS_TYPE":0,"CLASSIFICATION_TYPE":"U","NORAD_CAT_ID":60509,"ELEMENT_SET_NO":999,"REV_AT_EPOCH":8155,"BSTAR":0.00049770005,"MEAN_MOTION_DOT":0.00018954,"MEAN_MOTION_DDOT":0},{"OBJECT_NAME":"FLOCK 4BE-2","OBJECT_ID":"2024-149AV","EPOCH":"2026-02-01T17:31:37.821504","MEAN_MOTION":15.39891283,"ECCENTRICITY":0.00038484,"INCLINATION":97.392,"RA_OF_ASC_NODE":117.5112,"ARG_OF_PERICENTER":61.9627,"MEAN_ANOMALY":298.2008,"EPHEMERIS_TYPE":0,"CLASSIFICATION_TYPE":"U","NORAD_CAT_ID":60511,"ELEMENT_SET_NO":999,"REV_AT_EPOCH":8157,"BSTAR":0.00065479468,"MEAN_MOTION_DOT":0.00026009,"MEAN_MOTION_DDOT":0},{"OBJECT_NAME":"FLOCK 4BE-13","OBJECT_ID":"2024-149AW","EPOCH":"2026-02-01T19:02:46.974336","MEAN_MOTION":15.37306905,"ECCENTRICITY":0.00052623,"INCLINATION":97.3829,"RA_OF_ASC_NODE":116.1778,"ARG_OF_PERICENTER":45.425,"MEAN_ANOMALY":314.7424,"EPHEMERIS_TYPE":0,"CLASSIFICATION_TYPE":"U","NORAD_CAT_ID":60512,"ELEMENT_SET_NO":999,"REV_AT_EPOCH":8153,"BSTAR":0.00045936369,"MEAN_MOTION_DOT":0.00016733,"MEAN_MOTION_DDOT":0}]
