FLOCK 4BE-20            
1 60489U 24149X   26032.75730840  .00012055  00000+0  36746-3 0  9995
2 60489  97.3818 114.5465 0004112  46.8649 313.2937 15.34100826 81429
FLOCK 4BE-23            
1 60490U 24149Y   26032.78120190  .00012854  00000+0  39564-3 0  9999
2 60490  97.3897 114.8721 0004111  53.0879 307.0740 15.33774773 81419
FLOCK 4BE-15            
1 60491U 24149Z   26032.81036322  .00016191  00000+0  43801-3 0  9994
2 60491  97.3833 115.7515 0004351  71.0746 289.0971 15.37774766 81501
FLOCK 4BE-17            
1 60492U 24149AA  26032.86338862  .00013618  00000+0  39907-3 0  9997
2 60492  97.3889 115.5479 0003514  44.4481 315.7044 15.35316961 81460
FLOCK 4BE-22            
1 60494U 24149AC  26032.75628135  .00015425  00000+0  43872-3 0  9996
2 60494  97.3845 115.4597 0004764  51.5401 308.6270 15.36222510 81473
FLOCK 4BE-34            
1 60495U 24149AD  26032.85167006  .00014914  00000+0  41859-3 0  9998
2 60495  97.3889 116.2641 0004436  61.3198 298.8492 15.36647881 81512
FLOCK 4BE-32            
1 60497U 24149AF  26032.74787299  .00016095  00000+0  44816-3 0  9998
2 60497  97.3833 115.6739 0004685  52.4499 307.7170 15.36876304 81499
FLOCK 4BE-30            
1 60499U 24149AH  26032.75611650  .00015064  00000+0  42063-3 0  9995
2 60499  97.3914 116.2119 0004055  53.3990 306.7627 15.36807007 80878
FLOCK 4BE-11            
1 60501U 24149AK  26032.74950139  .00018288  00000+0  49701-3 0  9993
2 60501  97.3816 115.7726 0004727  48.7628 311.4023 15.37604959 81509
FLOCK 4BE-33            
1 60502U 24149AL  26032.76450879  .00128837  00000+0  21284-2 0  9999
2 60502  97.3785 115.9845 0002239  11.1552 348.9750 15.51779303 81510
FLOCK 4BE-10            
1 60503U 24149AM  26032.80308885  .00194112  00000+0  24663-2 0  9997
2 60503  97.3837 117.2322 0003015 323.1461  36.9588 15.58735079 81570
FLOCK 4BE-24            
1 60505U 24149AP  26032.66387992  .00017022  00000+0  46334-3 0  9993
2 60505  97.3829 115.9309 0004789  61.7704 298.4024 15.37570951 81503
TANAGER-4001            
1 60507U 24149AR  26032.77830722  .00032026  00000+0  71463-3 0  9993
2 60507  97.3789 125.6409 0005401 252.8942 107.1715 15.43483220 82141
FLOCK 4BE-29            
1 60509U 24149AT  26032.78357935  .00018954  00000+0  49770-3 0  9996
2 60509  97.3913 117.0913 0003890  67.1686 292.9970 15.38663732 81551
FLOCK 4BE-2             
1 60511U 24149AV  26032.73029886  .00026009  00000+0  65479-3 0  9999
2 60511  97.3920 117.5112 0003848  61.9627 298.2008 15.39891283 81576
FLOCK 4BE-13            
1 60512U 24149AW  26032.79359924  .00016733  00000+0  45936-3 0  9994
2 60512  97.3829 116.1778 0005262  45.4250 314.7424 15.37306905 81531
